start=new Date('2022-05-30T00:00:00.000Z').valueOf();
sats=[{"OBJECT_ID":"2020-074BF","RCS_SIZE":"LARGE","ECCENTRICITY":"0.00019890","MEAN_ELEMENT_THEORY":"SGP4","MEAN_MOTION_DOT":"-0.00002905","DECAY_DATE":null,"LAUNCH_DATE":"2020-10-24","PERIAPSIS":"545.860","TIME_SYSTEM":"UTC","REV_AT_EPOCH":"8885","TLE_LINE1":"1 46792U 20074BF  22149.93392895 -.00002905  00000-0 -17624-3 0  9998","EPHEMERIS_TYPE":"0","ARG_OF_PERICENTER":"50.0294","CLASSIFICATION_TYPE":"U","MEAN_MOTION":"15.06392325","FILE":"3471362","GP_ID":"204890144","SITE":"AFETR","EPOCH":"2022-05-29T22:24:51.461280","BSTAR":"-0.00017624000000","TLE_LINE2":"2 46792  53.0555  25.5716 0001989  50.0294 310.0869 15.06392325 88858","ELEMENT_SET_NO":"999","REF_FRAME":"TEME","NORAD_CAT_ID":"46792","MEAN_MOTION_DDOT":"0.0000000000000","COUNTRY_CODE":"US","OBJECT_TYPE":"PAYLOAD","PERIOD":"95.593","APOAPSIS":"548.615","OBJECT_NAME":"STARLINK-1934","MEAN_ANOMALY":"310.0869","RA_OF_ASC_NODE":"25.5716","CENTER_NAME":"EARTH","SEMIMAJOR_AXIS":"6925.372","INCLINATION":"53.0555"},{"OBJECT_TYPE":"PAYLOAD","COUNTRY_CODE":"US","MEAN_MOTION_DDOT":"0.0000000000000","PERIOD":"95.593","NORAD_CAT_ID":"46793","REF_FRAME":"TEME","ELEMENT_SET_NO":"999","BSTAR":"-0.00007419200000","EPOCH":"2022-05-29T21:30:27.355680","TLE_LINE2":"2 46793  53.0564  35.7544 0001523  70.9029 289.2125 15.06392986 88701","SITE":"AFETR","FILE":"3471362","GP_ID":"204888897","SEMIMAJOR_AXIS":"6925.370","CENTER_NAME":"EARTH","INCLINATION":"53.0564","MEAN_ANOMALY":"289.2125","OBJECT_NAME":"STARLINK-1941","APOAPSIS":"548.290","RA_OF_ASC_NODE":"35.7544","TIME_SYSTEM":"UTC","PERIAPSIS":"546.180","LAUNCH_DATE":"2020-10-24","MEAN_MOTION_DOT":"-0.00001386","DECAY_DATE":null,"OBJECT_ID":"2020-074BG","MEAN_ELEMENT_THEORY":"SGP4","RCS_SIZE":"LARGE","ECCENTRICITY":"0.00015230","CLASSIFICATION_TYPE":"U","MEAN_MOTION":"15.06392986","EPHEMERIS_TYPE":"0","ARG_OF_PERICENTER":"70.9029","REV_AT_EPOCH":"8870","TLE_LINE1":"1 46793U 20074BG  22149.89614995 -.00001386  00000-0 -74192-4 0  9998"},{"OBJECT_ID":"2020-074BH","RCS_SIZE":"LARGE","ECCENTRICITY":"0.00017140","MEAN_ELEMENT_THEORY":"SGP4","MEAN_MOTION_DOT":"-0.00004085","DECAY_DATE":null,"LAUNCH_DATE":"2020-10-24","PERIAPSIS":"546.037","TIME_SYSTEM":"UTC","TLE_LINE1":"1 46794U 20074BH  22149.90351429 -.00004085  00000-0 -25548-3 0  9990","REV_AT_EPOCH":"8871","EPHEMERIS_TYPE":"0","ARG_OF_PERICENTER":"60.5804","CLASSIFICATION_TYPE":"U","MEAN_MOTION":"15.06396575","GP_ID":"204889147","FILE":"3471362","SITE":"AFETR","BSTAR":"-0.00025548000000","EPOCH":"2022-05-29T21:41:03.634656","TLE_LINE2":"2 46794  53.0560  35.7250 0001714  60.5804 299.5356 15.06396575 88719","ELEMENT_SET_NO":"999","NORAD_CAT_ID":"46794","REF_FRAME":"TEME","OBJECT_TYPE":"PAYLOAD","COUNTRY_CODE":"US","PERIOD":"95.592","MEAN_MOTION_DDOT":"0.0000000000000","APOAPSIS":"548.411","MEAN_ANOMALY":"299.5356","OBJECT_NAME":"STARLINK-1942","RA_OF_ASC_NODE":"35.7250","SEMIMAJOR_AXIS":"6925.359","CENTER_NAME":"EARTH","INCLINATION":"53.0560"},{"DECAY_DATE":null,"MEAN_MOTION_DOT":"-0.00002387","MEAN_ELEMENT_THEORY":"SGP4","ECCENTRICITY":"0.00019820","RCS_SIZE":"LARGE","OBJECT_ID":"2020-074BK","TIME_SYSTEM":"UTC","PERIAPSIS":"545.876","LAUNCH_DATE":"2020-10-24","ARG_OF_PERICENTER":"53.7378","EPHEMERIS_TYPE":"0","REV_AT_EPOCH":"8885","TLE_LINE1":"1 46796U 20074BK  22149.94499519 -.00002387  00000-0 -14145-3 0  9993","MEAN_MOTION":"15.06388549","CLASSIFICATION_TYPE":"U","TLE_LINE2":"2 46796  53.0565  25.5466 0001982  53.7378 306.3794 15.06388549 88859","BSTAR":"-0.00014145000000","EPOCH":"2022-05-29T22:40:47.584416","SITE":"AFETR","GP_ID":"204890398","FILE":"3471362","OBJECT_TYPE":"PAYLOAD","COUNTRY_CODE":"US","MEAN_MOTION_DDOT":"0.0000000000000","PERIOD":"95.593","REF_FRAME":"TEME","NORAD_CAT_ID":"46796","ELEMENT_SET_NO":"999","RA_OF_ASC_NODE":"25.5466","OBJECT_NAME":"STARLINK-1944","MEAN_ANOMALY":"306.3794","APOAPSIS":"548.621","INCLINATION":"53.0565","CENTER_NAME":"EARTH","SEMIMAJOR_AXIS":"6925.384"},{"PERIAPSIS":"546.058","TIME_SYSTEM":"UTC","LAUNCH_DATE":"2020-10-24","DECAY_DATE":null,"MEAN_MOTION_DOT":"-0.00000275","RCS_SIZE":"LARGE","ECCENTRICITY":"0.00017470","MEAN_ELEMENT_THEORY":"SGP4","OBJECT_ID":"2020-074BM","MEAN_MOTION":"15.06382149","CLASSIFICATION_TYPE":"U","EPHEMERIS_TYPE":"0","ARG_OF_PERICENTER":"61.4866","TLE_LINE1":"1 46798U 20074BM  22149.91042648 -.00000275  00000-0  41667-6 0  9994","REV_AT_EPOCH":"8850","NORAD_CAT_ID":"46798","REF_FRAME":"TEME","PERIOD":"95.593","COUNTRY_CODE":"US","OBJECT_TYPE":"PAYLOAD","MEAN_MOTION_DDOT":"0.0000000000000","ELEMENT_SET_NO":"999","TLE_LINE2":"2 46798  53.0567  50.6980 0001747  61.4866 298.6298 15.06382149 88504","EPOCH":"2022-05-29T21:51:00.847872","BSTAR":"0.00000041667000","FILE":"3471362","GP_ID":"204890645","SITE":"AFETR","INCLINATION":"53.0567","CENTER_NAME":"EARTH","SEMIMAJOR_AXIS":"6925.403","RA_OF_ASC_NODE":"50.6980","APOAPSIS":"548.478","MEAN_ANOMALY":"298.6298","OBJECT_NAME":"STARLINK-1948"},{"TLE_LINE1":"1 47122U 20088A   22149.93117969 -.00002037  00000-0 -11795-3 0  9997","REV_AT_EPOCH":"8387","ARG_OF_PERICENTER":"94.7140","EPHEMERIS_TYPE":"0","MEAN_MOTION":"15.06383604","CLASSIFICATION_TYPE":"U","MEAN_ELEMENT_THEORY":"SGP4","ECCENTRICITY":"0.00015420","RCS_SIZE":"LARGE","OBJECT_ID":"2020-088A","DECAY_DATE":null,"MEAN_MOTION_DOT":"-0.00002037","LAUNCH_DATE":"2020-11-25","TIME_SYSTEM":"UTC","PERIAPSIS":"546.196","RA_OF_ASC_NODE":"15.5851","MEAN_ANOMALY":"265.4025","OBJECT_NAME":"STARLINK-1777","APOAPSIS":"548.332","INCLINATION":"53.0562","CENTER_NAME":"EARTH","SEMIMAJOR_AXIS":"6925.399","SITE":"AFETR","FILE":"3471362","GP_ID":"204889685","TLE_LINE2":"2 47122  53.0562  15.5851 0001542  94.7140 265.4025 15.06383604 83877","BSTAR":"-0.00011795000000","EPOCH":"2022-05-29T22:20:53.925216","ELEMENT_SET_NO":"999","COUNTRY_CODE":"US","OBJECT_TYPE":"PAYLOAD","PERIOD":"95.593","MEAN_MOTION_DDOT":"0.0000000000000","NORAD_CAT_ID":"47122","REF_FRAME":"TEME"},{"LAUNCH_DATE":"2020-11-25","TIME_SYSTEM":"UTC","PERIAPSIS":"547.780","MEAN_ELEMENT_THEORY":"SGP4","RCS_SIZE":"LARGE","ECCENTRICITY":"0.00014820","OBJECT_ID":"2020-088C","DECAY_DATE":null,"MEAN_MOTION_DOT":"-0.00051040","MEAN_MOTION":"15.05880521","CLASSIFICATION_TYPE":"U","REV_AT_EPOCH":"8380","TLE_LINE1":"1 47124U 20088C   22149.91761727 -.00051040  00000-0 -34808-2 0  9991","ARG_OF_PERICENTER":"76.3957","EPHEMERIS_TYPE":"0","ELEMENT_SET_NO":"999","PERIOD":"95.625","COUNTRY_CODE":"US","OBJECT_TYPE":"PAYLOAD","MEAN_MOTION_DDOT":"0.0000000000000","REF_FRAME":"TEME","NORAD_CAT_ID":"47124","SITE":"AFETR","GP_ID":"204889935","FILE":"3471362","TLE_LINE2":"2 47124  53.0565  20.6693 0001482  76.3957 283.7197 15.05880521 83803","BSTAR":"-0.00348080000000","EPOCH":"2022-05-29T22:01:22.132128","INCLINATION":"53.0565","CENTER_NAME":"EARTH","SEMIMAJOR_AXIS":"6926.941","RA_OF_ASC_NODE":"20.6693","MEAN_ANOMALY":"283.7197","OBJECT_NAME":"STARLINK-1785","APOAPSIS":"549.833"},{"REV_AT_EPOCH":"8387","TLE_LINE1":"1 47126U 20088E   22149.89061625 -.00003946  00000-0 -24621-3 0  9995","EPHEMERIS_TYPE":"0","ARG_OF_PERICENTER":"59.8532","CLASSIFICATION_TYPE":"U","MEAN_MOTION":"15.06392563","OBJECT_ID":"2020-088E","MEAN_ELEMENT_THEORY":"SGP4","ECCENTRICITY":"0.00017040","RCS_SIZE":"LARGE","MEAN_MOTION_DOT":"-0.00003946","DECAY_DATE":null,"LAUNCH_DATE":"2020-11-25","TIME_SYSTEM":"UTC","PERIAPSIS":"546.056","OBJECT_NAME":"STARLINK-1812","MEAN_ANOMALY":"300.2625","APOAPSIS":"548.416","RA_OF_ASC_NODE":"15.7696","CENTER_NAME":"EARTH","SEMIMAJOR_AXIS":"6925.371","INCLINATION":"53.0555","SITE":"AFETR","GP_ID":"204890182","FILE":"3471362","BSTAR":"-0.00024621000000","EPOCH":"2022-05-29T21:22:29.244000","TLE_LINE2":"2 47126  53.0555  15.7696 0001704  59.8532 300.2625 15.06392563 83877","ELEMENT_SET_NO":"999","COUNTRY_CODE":"US","PERIOD":"95.593","OBJECT_TYPE":"PAYLOAD","MEAN_MOTION_DDOT":"0.0000000000000","NORAD_CAT_ID":"47126","REF_FRAME":"TEME"},{"TIME_SYSTEM":"UTC","PERIAPSIS":"546.110","LAUNCH_DATE":"2020-11-25","MEAN_MOTION_DOT":"0.00000126","DECAY_DATE":null,"OBJECT_ID":"2020-088G","MEAN_ELEMENT_THEORY":"SGP4","ECCENTRICITY":"0.00016410","RCS_SIZE":"LARGE","CLASSIFICATION_TYPE":"U","MEAN_MOTION":"15.06389296","EPHEMERIS_TYPE":"0","ARG_OF_PERICENTER":"72.6015","TLE_LINE1":"1 47128U 20088G   22149.84823610  .00000126  00000-0  27374-4 0  9996","REV_AT_EPOCH":"8414","PERIOD":"95.593","COUNTRY_CODE":"US","OBJECT_TYPE":"PAYLOAD","MEAN_MOTION_DDOT":"0.0000000000000","REF_FRAME":"TEME","NORAD_CAT_ID":"47128","ELEMENT_SET_NO":"999","BSTAR":"0.00002737400000","EPOCH":"2022-05-29T20:21:27.599040","TLE_LINE2":"2 47128  53.0559 355.9708 0001641  72.6015 287.5153 15.06389296 84148","SITE":"AFETR","GP_ID":"204888935","FILE":"3471362","CENTER_NAME":"EARTH","SEMIMAJOR_AXIS":"6925.381","INCLINATION":"53.0559","OBJECT_NAME":"STARLINK-1837","MEAN_ANOMALY":"287.5153","APOAPSIS":"548.383","RA_OF_ASC_NODE":"355.9708"},{"REF_FRAME":"TEME","NORAD_CAT_ID":"47129","COUNTRY_CODE":"US","PERIOD":"95.593","OBJECT_TYPE":"PAYLOAD","MEAN_MOTION_DDOT":"0.0000000000000","ELEMENT_SET_NO":"999","EPOCH":"2022-05-29T21:02:36.278592","BSTAR":"-0.00005179900000","TLE_LINE2":"2 47129  53.0568   5.8377 0001684  57.9815 302.1338 15.06389611 84019","GP_ID":"204889185","FILE":"3471362","SITE":"AFETR","CENTER_NAME":"EARTH","SEMIMAJOR_AXIS":"6925.380","INCLINATION":"53.0568","APOAPSIS":"548.412","OBJECT_NAME":"STARLINK-1838","MEAN_ANOMALY":"302.1338","RA_OF_ASC_NODE":"5.8377","PERIAPSIS":"546.079","TIME_SYSTEM":"UTC","LAUNCH_DATE":"2020-11-25","MEAN_MOTION_DOT":"-0.00001053","DECAY_DATE":null,"OBJECT_ID":"2020-088H","ECCENTRICITY":"0.00016840","RCS_SIZE":"LARGE","MEAN_ELEMENT_THEORY":"SGP4","CLASSIFICATION_TYPE":"U","MEAN_MOTION":"15.06389611","EPHEMERIS_TYPE":"0","ARG_OF_PERICENTER":"57.9815","TLE_LINE1":"1 47129U 20088H   22149.87680878 -.00001053  00000-0 -51799-4 0  9997","REV_AT_EPOCH":"8401"}];
